[{"OBJECT_NAME":"HULIANWANG DIGUI-49","OBJECT_ID":"2025-168A","EPOCH":"2026-03-26T12:55:42.384000","MEAN_MOTION":13.29341385,"ECCENTRICITY":0.000762,"INCLINATION":50.0019,"RA_OF_ASC_NODE":262.3911,"ARG_OF_PERICENTER":213.5952,"MEAN_ANOMALY":146.4437,"EPHEMERIS_TYPE":0,"CLASSIFICATION_TYPE":"U","NORAD_CAT_ID":65106,"ELEMENT_SET_NO":999,"REV_AT_EPOCH":3169,"BSTAR":0.00012796,"MEAN_MOTION_DOT":-6.5e-7,"MEAN_MOTION_DDOT":0},{"OBJECT_NAME":"HULIANWANG DIGUI-50","OBJECT_ID":"2025-168B","EPOCH":"2026-03-26T12:43:35.110272","MEAN_MOTION":13.29342087,"ECCENTRICITY":0.0008665,"INCLINATION":49.999,"RA_OF_ASC_NODE":262.2857,"ARG_OF_PERICENTER":200.235,"MEAN_ANOMALY":159.818,"EPHEMERIS_TYPE":0,"CLASSIFICATION_TYPE":"U","NORAD_CAT_ID":65107,"ELEMENT_SET_NO":999,"REV_AT_EPOCH":3169,"BSTAR":0.00016053,"MEAN_MOTION_DOT":-4.9e-7,"MEAN_MOTION_DDOT":0},{"OBJECT_NAME":"HULIANWANG DIGUI-51","OBJECT_ID":"2025-168C","EPOCH":"2026-03-26T12:31:31.905984","MEAN_MOTION":13.29342578,"ECCENTRICITY":0.0010001,"INCLINATION":50.0028,"RA_OF_ASC_NODE":262.3176,"ARG_OF_PERICENTER":200.3148,"MEAN_ANOMALY":159.7327,"EPHEMERIS_TYPE":0,"CLASSIFICATION_TYPE":"U","NORAD_CAT_ID":65108,"ELEMENT_SET_NO":999,"REV_AT_EPOCH":3169,"BSTAR":0.00016685,"MEAN_MOTION_DOT":-4.7e-7,"MEAN_MOTION_DDOT":0},{"OBJECT_NAME":"HULIANWANG DIGUI-52","OBJECT_ID":"2025-168D","EPOCH":"2026-03-26T12:19:41.866464","MEAN_MOTION":13.29341088,"ECCENTRICITY":0.0009831,"INCLINATION":50.002,"RA_OF_ASC_NODE":262.2561,"ARG_OF_PERICENTER":213.0053,"MEAN_ANOMALY":147.0206,"EPHEMERIS_TYPE":0,"CLASSIFICATION_TYPE":"U","NORAD_CAT_ID":65109,"ELEMENT_SET_NO":999,"REV_AT_EPOCH":3169,"BSTAR":0.00013444,"MEAN_MOTION_DOT":-6.2e-7,"MEAN_MOTION_DDOT":0},{"OBJECT_NAME":"HULIANWANG DIGUI-53","OBJECT_ID":"2025-168E","EPOCH":"2026-03-26T12:07:40.462752","MEAN_MOTION":13.29340976,"ECCENTRICITY":0.0008689,"INCLINATION":50.0028,"RA_OF_ASC_NODE":262.2357,"ARG_OF_PERICENTER":202.6932,"MEAN_ANOMALY":157.3557,"EPHEMERIS_TYPE":0,"CLASSIFICATION_TYPE":"U","NORAD_CAT_ID":65110,"ELEMENT_SET_NO":999,"REV_AT_EPOCH":3169,"BSTAR":0.00014043,"MEAN_MOTION_DOT":-5.9e-7,"MEAN_MOTION_DDOT":0},{"OBJECT_NAME":"HULIANWANG DIGUI-54","OBJECT_ID":"2025-168F","EPOCH":"2026-03-26T11:31:53.963616","MEAN_MOTION":13.29338209,"ECCENTRICITY":0.0010247,"INCLINATION":49.9978,"RA_OF_ASC_NODE":262.008,"ARG_OF_PERICENTER":208.1041,"MEAN_ANOMALY":151.9279,"EPHEMERIS_TYPE":0,"CLASSIFICATION_TYPE":"U","NORAD_CAT_ID":65111,"ELEMENT_SET_NO":999,"REV_AT_EPOCH":3169,"BSTAR":0.00011247,"MEAN_MOTION_DOT":-7.2e-7,"MEAN_MOTION_DDOT":0},{"OBJECT_NAME":"HULIANWANG DIGUI-55","OBJECT_ID":"2025-168G","EPOCH":"2026-03-26T11:55:30.247968","MEAN_MOTION":13.29341765,"ECCENTRICITY":0.0011565,"INCLINATION":49.9984,"RA_OF_ASC_NODE":262.1022,"ARG_OF_PERICENTER":204.2018,"MEAN_ANOMALY":155.8311,"EPHEMERIS_TYPE":0,"CLASSIFICATION_TYPE":"U","NORAD_CAT_ID":65112,"ELEMENT_SET_NO":999,"REV_AT_EPOCH":3169,"BSTAR":0.00013284,"MEAN_MOTION_DOT":-6.2e-7,"MEAN_MOTION_DDOT":0},{"OBJECT_NAME":"HULIANWANG DIGUI-56","OBJECT_ID":"2025-168H","EPOCH":"2026-03-26T11:43:31.120032","MEAN_MOTION":13.29341002,"ECCENTRICITY":0.0011149,"INCLINATION":49.9976,"RA_OF_ASC_NODE":262.0421,"ARG_OF_PERICENTER":225.727,"MEAN_ANOMALY":134.2688,"EPHEMERIS_TYPE":0,"CLASSIFICATION_TYPE":"U","NORAD_CAT_ID":65113,"ELEMENT_SET_NO":999,"REV_AT_EPOCH":3169,"BSTAR":0.00012285,"MEAN_MOTION_DOT":-6.7e-7,"MEAN_MOTION_DDOT":0},{"OBJECT_NAME":"HULIANWANG DIGUI-57","OBJECT_ID":"2025-168J","EPOCH":"2026-03-26T13:08:10.618368","MEAN_MOTION":13.29337958,"ECCENTRICITY":0.0008958,"INCLINATION":50.0004,"RA_OF_ASC_NODE":261.7466,"ARG_OF_PERICENTER":216.1846,"MEAN_ANOMALY":143.8421,"EPHEMERIS_TYPE":0,"CLASSIFICATION_TYPE":"U","NORAD_CAT_ID":65114,"ELEMENT_SET_NO":999,"REV_AT_EPOCH":3171,"BSTAR":0.00013047,"MEAN_MOTION_DOT":-6.3e-7,"MEAN_MOTION_DDOT":0},{"OBJECT_NAME":"HULIANWANG DIGUI-58","OBJECT_ID":"2025-174A","EPOCH":"2026-03-26T12:59:06.953280","MEAN_MOTION":13.24414712,"ECCENTRICITY":0.0001516,"INCLINATION":86.4901,"RA_OF_ASC_NODE":279.9332,"ARG_OF_PERICENTER":99.2291,"MEAN_ANOMALY":260.9015,"EPHEMERIS_TYPE":0,"CLASSIFICATION_TYPE":"U","NORAD_CAT_ID":65164,"ELEMENT_SET_NO":999,"REV_AT_EPOCH":2985,"BSTAR":0.00016096,"MEAN_MOTION_DOT":8.4e-7,"MEAN_MOTION_DDOT":0},{"OBJECT_NAME":"HULIANWANG DIGUI-59","OBJECT_ID":"2025-174B","EPOCH":"2026-03-26T13:10:01.315776","MEAN_MOTION":13.24413331,"ECCENTRICITY":0.0001469,"INCLINATION":86.4859,"RA_OF_ASC_NODE":279.8521,"ARG_OF_PERICENTER":99.8143,"MEAN_ANOMALY":260.3157,"EPHEMERIS_TYPE":0,"CLASSIFICATION_TYPE":"U","NORAD_CAT_ID":65165,"ELEMENT_SET_NO":999,"REV_AT_EPOCH":2985,"BSTAR":-4.3855e-5,"MEAN_MOTION_DOT":-4.0e-8,"MEAN_MOTION_DDOT":0},{"OBJECT_NAME":"HULIANWANG DIGUI-60","OBJECT_ID":"2025-174C","EPOCH":"2026-03-26T13:20:51.385056","MEAN_MOTION":13.24414004,"ECCENTRICITY":0.0001578,"INCLINATION":86.4893,"RA_OF_ASC_NODE":279.9255,"ARG_OF_PERICENTER":100.8148,"MEAN_ANOMALY":259.3163,"EPHEMERIS_TYPE":0,"CLASSIFICATION_TYPE":"U","NORAD_CAT_ID":65166,"ELEMENT_SET_NO":999,"REV_AT_EPOCH":2985,"BSTAR":0.00023633,"MEAN_MOTION_DOT":1.16e-6,"MEAN_MOTION_DDOT":0},{"OBJECT_NAME":"HULIANWANG DIGUI-61","OBJECT_ID":"2025-174D","EPOCH":"2026-03-26T13:31:49.994112","MEAN_MOTION":13.2441464,"ECCENTRICITY":0.0001538,"INCLINATION":86.4902,"RA_OF_ASC_NODE":279.9474,"ARG_OF_PERICENTER":102.1739,"MEAN_ANOMALY":257.9567,"EPHEMERIS_TYPE":0,"CLASSIFICATION_TYPE":"U","NORAD_CAT_ID":65167,"ELEMENT_SET_NO":999,"REV_AT_EPOCH":2985,"BSTAR":0.0003239,"MEAN_MOTION_DOT":1.54e-6,"MEAN_MOTION_DDOT":0},{"OBJECT_NAME":"HULIANWANG DIGUI-62","OBJECT_ID":"2025-174E","EPOCH":"2026-03-26T11:53:50.651232","MEAN_MOTION":13.24413687,"ECCENTRICITY":0.0001631,"INCLINATION":86.4843,"RA_OF_ASC_NODE":279.8478,"ARG_OF_PERICENTER":103.1377,"MEAN_ANOMALY":256.9939,"EPHEMERIS_TYPE":0,"CLASSIFICATION_TYPE":"U","NORAD_CAT_ID":65168,"ELEMENT_SET_NO":999,"REV_AT_EPOCH":2984,"BSTAR":0.00028075,"MEAN_MOTION_DOT":1.35e-6,"MEAN_MOTION_DDOT":0},{"OBJECT_NAME":"HULIANWANG DIGUI-63","OBJECT_ID":"2025-174F","EPOCH":"2026-03-26T12:04:34.415904","MEAN_MOTION":13.24427442,"ECCENTRICITY":0.0001538,"INCLINATION":86.4896,"RA_OF_ASC_NODE":279.9654,"ARG_OF_PERICENTER":103.7624,"MEAN_ANOMALY":256.3681,"EPHEMERIS_TYPE":0,"CLASSIFICATION_TYPE":"U","NORAD_CAT_ID":65169,"ELEMENT_SET_NO":999,"REV_AT_EPOCH":2984,"BSTAR":0.00028709,"MEAN_MOTION_DOT":1.38e-6,"MEAN_MOTION_DDOT":0},{"OBJECT_NAME":"HULIANWANG DIGUI-64","OBJECT_ID":"2025-174G","EPOCH":"2026-03-26T12:15:34.778880","MEAN_MOTION":13.24413655,"ECCENTRICITY":0.0001611,"INCLINATION":86.4855,"RA_OF_ASC_NODE":279.8798,"ARG_OF_PERICENTER":102.4694,"MEAN_ANOMALY":257.662,"EPHEMERIS_TYPE":0,"CLASSIFICATION_TYPE":"U","NORAD_CAT_ID":65170,"ELEMENT_SET_NO":999,"REV_AT_EPOCH":2984,"BSTAR":0.00024557,"MEAN_MOTION_DOT":1.2e-6,"MEAN_MOTION_DDOT":0}]
