HULIANWANG DIGUI-49     
1 65106U 25168A   26085.53868500 -.00000065  00000+0  12796-3 0  9995
2 65106  50.0019 262.3911 0007620 213.5952 146.4437 13.29341385 31698
HULIANWANG DIGUI-50     
1 65107U 25168B   26085.53026748 -.00000049  00000+0  16053-3 0  9998
2 65107  49.9990 262.2857 0008665 200.2350 159.8180 13.29342087 31690
HULIANWANG DIGUI-51     
1 65108U 25168C   26085.52189706 -.00000047  00000+0  16685-3 0  9991
2 65108  50.0028 262.3176 0010001 200.3148 159.7327 13.29342578 31691
HULIANWANG DIGUI-52     
1 65109U 25168D   26085.51367901 -.00000062  00000+0  13444-3 0  9993
2 65109  50.0020 262.2561 0009831 213.0053 147.0206 13.29341088 31697
HULIANWANG DIGUI-53     
1 65110U 25168E   26085.50532943 -.00000059  00000+0  14043-3 0  9996
2 65110  50.0028 262.2357 0008689 202.6932 157.3557 13.29340976 31698
HULIANWANG DIGUI-54     
1 65111U 25168F   26085.48048569 -.00000072  00000+0  11247-3 0  9998
2 65111  49.9978 262.0080 0010247 208.1041 151.9279 13.29338209 31693
HULIANWANG DIGUI-55     
1 65112U 25168G   26085.49687787 -.00000062  00000+0  13284-3 0  9993
2 65112  49.9984 262.1022 0011565 204.2018 155.8311 13.29341765 31694
HULIANWANG DIGUI-56     
1 65113U 25168H   26085.48855463 -.00000067  00000+0  12285-3 0  9996
2 65113  49.9976 262.0421 0011149 225.7270 134.2688 13.29341002 31696
HULIANWANG DIGUI-57     
1 65114U 25168J   26085.54734512 -.00000063  00000+0  13047-3 0  9998
2 65114  50.0004 261.7466 0008958 216.1846 143.8421 13.29337958 31713
HULIANWANG DIGUI-58     
1 65164U 25174A   26085.54105270  .00000084  00000+0  16096-3 0  9992
2 65164  86.4901 279.9332 0001516  99.2291 260.9015 13.24414712 29858
HULIANWANG DIGUI-59     
1 65165U 25174B   26085.54862634 -.00000004  00000+0 -43855-4 0  9995
2 65165  86.4859 279.8521 0001469  99.8143 260.3157 13.24413331 29856
HULIANWANG DIGUI-60     
1 65166U 25174C   26085.55615029  .00000116  00000+0  23633-3 0  9994
2 65166  86.4893 279.9255 0001578 100.8148 259.3163 13.24414004 29852
HULIANWANG DIGUI-61     
1 65167U 25174D   26085.56377308  .00000154  00000+0  32390-3 0  9993
2 65167  86.4902 279.9474 0001538 102.1739 257.9567 13.24414640 29852
HULIANWANG DIGUI-62     
1 65168U 25174E   26085.49572513  .00000135  00000+0  28075-3 0  9995
2 65168  86.4843 279.8478 0001631 103.1377 256.9939 13.24413687 29844
HULIANWANG DIGUI-63     
1 65169U 25174F   26085.50317611  .00000138  00000+0  28709-3 0  9991
2 65169  86.4896 279.9654 0001538 103.7624 256.3681 13.24427442 29849
HULIANWANG DIGUI-64     
1 65170U 25174G   26085.51081920  .00000120  00000+0  24557-3 0  9993
2 65170  86.4855 279.8798 0001611 102.4694 257.6620 13.24413655 29847
